IRIDIUM 166             
1 43570U 18061B   25252.82558514  .00000156  00000+0  48813-4 0  9998
2 43570  86.4044 173.9102 0002414  81.6090 278.5379 14.34218005373210
IRIDIUM 158             
1 43571U 18061C   25252.86364003  .00000271  00000+0  89800-4 0  9990
2 43571  86.4045 173.9042 0002160  88.3519 271.7925 14.34217921373187
IRIDIUM 165             
1 43572U 18061D   25252.74947377  .00000238  00000+0  77857-4 0  9991
2 43572  86.4046 173.9927 0002264  81.0044 279.1408 14.34218688373199
IRIDIUM 155             
1 43573U 18061E   25252.85095472  .00000269  00000+0  88900-4 0  9999
2 43573  86.4042 173.8337 0002384  87.6472 272.4997 14.34218556373171
IRIDIUM 154             
1 43574U 18061F   25252.83192583  .00000039  00000+0  67678-5 0  9994
2 43574  86.4046 173.9610 0002213  82.6478 277.4969 14.34220230373225
IRIDIUM 163             
1 43575U 18061G   25252.88266829  .00000066  00000+0  16333-4 0  9996
2 43575  86.4043 173.8642 0002075  87.0692 273.0741 14.34217571373202
IRIDIUM 156             
1 43576U 18061H   25252.85729874  .00000153  00000+0  47716-4 0  9994
2 43576  86.4044 173.8817 0002484  87.2660 272.8820 14.34217703373199
IRIDIUM 164             
1 43577U 18061J   25252.90803886  .00000086  00000+0  23717-4 0  9997
2 43577  86.4044 173.8964 0002334  79.7360 280.4099 14.34217858373240
